     2.100          NAVIGATION                              RINEX VERSION / TYPE
fic2rin                                 09/28/2014 00:19:30 PGM / RUN BY / DATE
                                                            END OF HEADER
10 14  9 27  3 59 44.0 -.143478624523D-03 -.136424205266D-11  .000000000000D+00
     .450000000000D+02  .198437500000D+02  .465233664564D-08 -.179922405796D+01
     .845640897751D-06  .139931825688D-01  .117495656013D-04  .515362621307D+04
     .532784000000D+06  .214204192162D-06 -.277453951914D+01 -.165775418282D-06
     .942231140189D+00  .136406250000D+03  .884071371956D+00 -.787639951223D-08
    -.217866217860D-10  .100000000000D+01  .181100000000D+04  .000000000000D+00
     .240000000000D+01  .000000000000D+00 -.279396772385D-08  .450000000000D+02
     .525726000000D+06  .400000000000D+01
28 14  9 27  3 59 44.0  .387202948332D-03  .272848410532D-11  .000000000000D+00
     .100000000000D+01 -.459062500000D+02  .350800326527D-08 -.204539344516D+01
    -.236928462982D-05  .193322476698D-01  .120680779219D-04  .515368431854D+04
     .532784000000D+06  .376254320145D-06  .421635041009D+00  .745058059692D-07
     .987830124095D+00  .157937500000D+03 -.170842167928D+01 -.722887254013D-08
    -.892894335490D-11  .100000000000D+01  .181100000000D+04  .000000000000D+00
     .240000000000D+01  .000000000000D+00 -.107102096081D-07  .100000000000D+01
     .528456000000D+06  .400000000000D+01
29 14  9 27  3 59 28.0  .562994740903D-03  .238742359215D-11  .000000000000D+00
     .300000000000D+01  .415312500000D+02  .447375777854D-08 -.180060822862D+00
     .220537185669D-05  .114636810031D-02  .668503344059D-05  .515362864876D+04
     .532768000000D+06 -.335276126862D-07  .145518416827D+01 -.502914190292D-07
     .970289746565D+00  .258031250000D+03 -.805964594289D+00 -.809855162290D-08
     .382515933324D-09  .100000000000D+01  .181100000000D+04  .000000000000D+00
     .240000000000D+01  .000000000000D+00 -.977888703346D-08  .300000000000D+01
     .530166000000D+06  .400000000000D+01
 9 14  9 27  3 59 44.0  .166860409081D-04 -.329691829393D-11  .000000000000D+00
     .280000000000D+02  .991562500000D+02  .488663211927D-08  .166182313173D+01
     .515393912792D-05  .371967558749D-03  .553391873837D-05  .515374147987D+04
     .532784000000D+06  .316649675369D-07 -.174179259178D+01  .745058059692D-08
     .959252225688D+00  .273437500000D+03 -.269143658365D+01 -.839356391134D-08
     .416803075807D-09  .100000000000D+01  .181100000000D+04  .000000000000D+00
     .240000000000D+01  .000000000000D+00  .372529029846D-08  .280000000000D+02
     .532596000000D+06  .400000000000D+01
29 14  9 27  5 59 28.0  .563012436032D-03  .238742359215D-11  .000000000000D+00
     .400000000000D+01  .396562500000D+02  .451197365610D-08  .870404055411D+00
     .196136534214D-05  .114635669161D-02  .675581395626D-05  .515362843704D+04
     .539968000000D+06  .204890966415D-07  .145512586806D+01 -.577419996262D-07
     .970292564146D+00  .254343750000D+03 -.806221468075D+00 -.807712215884D-08
     .378587198248D-09  .100000000000D+01  .181100000000D+04  .000000000000D+00
     .240000000000D+01  .000000000000D+00 -.977888703346D-08  .400000000000D+01
     .532806000000D+06  .400000000000D+01
 9 14  9 27  5 59 44.0  .166622921824D-04 -.329691829393D-11  .000000000000D+00
     .290000000000D+02  .984375000000D+02  .482805825086D-08  .271127962642D+01
     .517629086971D-05  .371391535737D-03  .531040132046D-05  .515374249458D+04
     .539984000000D+06  .353902578354D-07 -.174185302054D+01 -.260770320892D-07
     .959255413387D+00  .279625000000D+03 -.269075096515D+01 -.836141971526D-08
     .431089385175D-09  .100000000000D+01  .181100000000D+04  .000000000000D+00
     .240000000000D+01  .000000000000D+00  .372529029846D-08  .290000000000D+02
     .532806000000D+06  .400000000000D+01
28 14  9 27  5 59 44.0  .387222040445D-03  .272848410532D-11  .000000000000D+00
     .300000000000D+01 -.412500000000D+02  .378551482474D-08 -.995202871337D+00
    -.208802521229D-05  .193325963337D-01  .121537595987D-04  .515368516731D+04
     .539984000000D+06 -.257045030594D-06  .421581164662D+00  .292435288429D-06
     .987826760847D+00  .162218750000D+03 -.170844426381D+01 -.789568602987D-08
    -.621454457501D-10  .100000000000D+01  .181100000000D+04  .000000000000D+00
     .240000000000D+01  .000000000000D+00 -.107102096081D-07  .300000000000D+01
     .532806000000D+06  .400000000000D+01
 1 14  9 27  6  0  0.0  .217505730689D-04  .454747350886D-12  .000000000000D+00
     .870000000000D+02 -.436250000000D+02  .473305429357D-08  .222670297247D+01
    -.227428972721D-05  .354171649087D-02  .605918467045D-05  .515367049026D+04
     .540000000000D+06 -.596046447754D-07  .245586683815D+01  .931322574615D-08
     .961315768192D+00  .262312500000D+03  .422538419255D+00 -.821748514838D-08
    -.349657421778D-09  .100000000000D+01  .181100000000D+04  .000000000000D+00
     .240000000000D+01  .000000000000D+00  .558793544769D-08  .870000000000D+02
     .532806000000D+06  .400000000000D+01
 2 14  9 27  6  0  0.0  .520811881870D-03  .216004991671D-11  .000000000000D+00
     .330000000000D+02 -.448750000000D+02  .512699927438D-08  .294618298640D+01
    -.234134495258D-05  .137776639313D-01  .539794564247D-05  .515367730141D+04
     .540000000000D+06 -.372529029846D-08  .242358911752D+01 -.162050127983D-06
     .939852454410D+00  .261562500000D+03 -.238526027617D+01 -.822641409174D-08
    -.257867884090D-09  .100000000000D+01  .181100000000D+04  .000000000000D+00
     .240000000000D+01  .000000000000D+00 -.200234353542D-07  .330000000000D+02
     .532806000000D+06  .400000000000D+01
 4 14  9 27  6  0  0.0 -.105053186417D-05 -.341060513165D-12  .000000000000D+00
     .240000000000D+02 -.448125000000D+02  .534200823037D-08  .137403671392D+01
    -.243261456490D-05  .111245237058D-01  .597350299358D-05  .515198988342D+04
     .540000000000D+06 -.214204192162D-06  .243929026616D+01 -.353902578354D-07
     .938876480317D+00  .256093750000D+03  .108018454328D+01 -.865678916144D-08
    -.388587614805D-09  .100000000000D+01  .181100000000D+04  .000000000000D+00
     .240000000000D+01  .000000000000D+00 -.651925802231D-08  .240000000000D+02
     .532806000000D+06  .400000000000D+01
 5 14  9 27  6  0  0.0 -.335521996021D-03  .386535248253D-11  .000000000000D+00
     .610000000000D+02  .147500000000D+02  .453018870054D-08 -.969470979112D+00
     .769272446632D-06  .384877319448D-02  .119190663099D-04  .515369463921D+04
     .540000000000D+06  .782310962677D-07 -.279113308000D+01 -.763684511185D-07
     .947440433474D+00  .137125000000D+03  .342342743789D+00 -.800497629654D-08
    -.149649090628D-09  .100000000000D+01  .181100000000D+04  .000000000000D+00
     .240000000000D+01  .000000000000D+00 -.102445483208D-07  .610000000000D+02
     .532806000000D+06  .400000000000D+01
 6 14  9 27  6  0  0.0 -.355718657374D-05  .159161572810D-11  .000000000000D+00
     .520000000000D+02 -.409062500000D+02  .470376735936D-08 -.100240607808D+01
    -.200234353542D-05  .550513388589D-03  .579282641411D-05  .515360189247D+04
     .540000000000D+06 -.260770320892D-07  .244730691826D+01  .465661287308D-07
     .961228110140D+00  .266406250000D+03  .212476821292D+01 -.818962684512D-08
    -.290369237901D-09  .100000000000D+01  .181100000000D+04  .000000000000D+00
     .240000000000D+01  .000000000000D+00  .465661287308D-08  .520000000000D+02
     .532806000000D+06  .400000000000D+01
 7 14  9 27  6  0  0.0  .396074261516D-03  .409272615798D-11  .000000000000D+00
     .440000000000D+02 -.663437500000D+02  .470305304389D-08  .169438832454D+01
    -.332854688168D-05  .796035374515D-02  .429712235928D-05  .515361010170D+04
     .540000000000D+06 -.875443220139D-07 -.666855102632D+00  .197440385818D-06
     .972429420789D+00  .305781250000D+03 -.277919056728D+01 -.840677874751D-08
    -.377872882779D-09  .100000000000D+01  .181100000000D+04  .000000000000D+00
     .240000000000D+01  .000000000000D+00 -.107102096081D-07  .440000000000D+02
     .532806000000D+06  .400000000000D+01
 8 14  9 27  6  0  0.0  .156778842211D-04  .113686837722D-12  .000000000000D+00
     .900000000000D+02 -.779062500000D+02  .406874090796D-08  .186531805163D+01
    -.396557152271D-05  .146524622105D-01  .564754009247D-05  .515217920685D+04
     .540000000000D+06 -.324100255966D-06 -.564722002115D+00  .238418579102D-06
     .995935173018D+00  .294281250000D+03 -.270917096606D+01 -.805497837932D-08
    -.439661170795D-09  .100000000000D+01  .181100000000D+04  .000000000000D+00
     .340000000000D+01  .000000000000D+00 -.419095158577D-08  .900000000000D+02
     .532806000000D+06  .400000000000D+01
10 14  9 27  6  0  0.0 -.143488869071D-03 -.136424205266D-11  .000000000000D+00
     .470000000000D+02  .244687500000D+02  .475734101949D-08 -.746696109702D+00
     .145845115185D-05  .139935021289D-01  .119321048260D-04  .515362593651D+04
     .540000000000D+06  .633299350739D-07 -.277459666804D+01  .217929482460D-06
     .942228884369D+00  .139906250000D+03  .884088420803D+00 -.826820154664D-08
    -.150720563831D-09  .100000000000D+01  .181100000000D+04  .000000000000D+00
     .240000000000D+01  .000000000000D+00 -.279396772385D-08  .470000000000D+02
     .532806000000D+06  .400000000000D+01
11 14  9 27  6  0  0.0 -.524330884218D-03 -.284217094304D-11  .000000000000D+00
     .830000000000D+02 -.261562500000D+02  .646776940856D-08  .181261272372D+01
    -.168569386005D-05  .155644600745D-01  .350736081600D-05  .515370509720D+04
     .540000000000D+06  .353902578354D-07  .212283275621D+01 -.400468707085D-06
     .891133563633D+00  .274875000000D+03  .133823539124D+01 -.910716506427D-08
    -.810748056625D-10  .100000000000D+01  .181100000000D+04  .000000000000D+00
     .240000000000D+01  .000000000000D+00 -.121071934700D-07  .830000000000D+02
     .532806000000D+06  .400000000000D+01
